[
    {
        "Altitude(m)": 622200.0821523429,
        "Argument of Periapsis(deg)": 0.0,
        "Eccentricity": 0.0,
        "Inclination(deg)": 60.0,
        "Latitude(deg)": -52.16246909358067,
        "Longitude(deg)": 132.36067968501936,
        "Mean Anomaly(deg)": -65.45449999999992,
        "RAAN(deg)": 280.0,
        "Satellite Name": "Test1 1250",
        "Satellite Number": 1250,
        "Semi-Major Axis(m)": 6980739.136638005,
        "Time(s)": 0
    },
    {
        "Altitude(m)": 622058.2501025491,
        "Argument of Periapsis(deg)": 0.00010418945913296404,
        "Eccentricity": 0.0,
        "Inclination(deg)": 60.0,
        "Latitude(deg)": -51.79921950983302,
        "Longitude(deg)": 133.12873734859238,
        "Mean Anomaly(deg)": -64.83439385453808,
        "RAAN(deg)": 279.99957995086027,
        "Satellite Name": "Test1 1250",
        "Satellite Number": 1250,
        "Semi-Major Axis(m)": 6980739.136638005,
        "Time(s)": 10
    }
]